STARLINK-5450           
1 54778U 22175W   26146.02513959 -.00000412  00000+0 -78194-5 0  9993
2 54778  53.2098  42.0113 0001349  79.6250 280.4894 15.08845801191801
STARLINK-5447           
1 54779U 22175X   26146.09506167  .00004012  00000+0  27012-3 0  9993
2 54779  53.2118  41.7369 0001528  93.1247 266.9920 15.08825687191810
STARLINK-5449           
1 54780U 22175Y   26146.07664256 -.00000094  00000+0  12217-4 0  9996
2 54780  53.2112  41.6156 0001691  71.3343 288.7833 15.08833238191811
STARLINK-5443           
1 54781U 22175Z   26146.08769906 -.00000973  00000+0 -43072-4 0  9996
2 54781  53.2116  41.6827 0001546  89.4053 270.7117 15.08831505191819
STARLINK-5439           
1 54783U 22175AB  26146.15025150 -.00001335  00000+0 -65756-4 0  9998
2 54783  53.2108  41.3688 0001885  77.7068 282.4135 15.08841014191823
STARLINK-5442           
1 54784U 22175AC  26146.13228270 -.00000231  00000+0  35513-5 0  9997
2 54784  53.2103  56.2239 0001385  99.8886 260.2262 15.08837661191619
STARLINK-5440           
1 54785U 22175AD  26145.86687494  .00002123  00000+0  15150-3 0  9998
2 54785  53.2126   2.5271 0001320  95.5326 264.5817 15.08829834192343
STARLINK-5441           
1 54787U 22175AF  26146.12859685  .00000376  00000+0  41686-4 0  9995
2 54787  53.2096  56.2012 0001364  75.0032 285.1111 15.08836936191611
STARLINK-5399           
1 54788U 22175AG  26145.94047321  .00000280  00000+0  35702-4 0  9997
2 54788  53.2119  42.1935 0001769  85.3575 274.7619 15.08838654191796
STARLINK-5446           
1 54789U 22175AH  26146.07247610  .00000716  00000+0  63099-4 0  9990
2 54789  53.2138  26.5011 0001643  94.7816 265.3364 15.08837914192020
STARLINK-5445           
1 54790U 22175AJ  26146.13183144 -.00000591  00000+0 -19064-4 0  9996
2 54790  53.2114  41.2542 0001588  76.6100 283.5069 15.08829117191829
STARLINK-5425           
1 54791U 22175AK  26146.08032631 -.00000337  00000+0 -30719-5 0  9994
2 54791  53.2107  41.6392 0001458  94.4912 265.6247 15.08835072191819
STARLINK-5431           
1 54792U 22175AL  26146.05498643 -.00000724  00000+0 -27399-4 0  9990
2 54792  53.2101  56.4523 0001597  91.0251 269.0924 15.08842435191605
STARLINK-5433           
1 54793U 22175AM  26146.08124878  .00000414  00000+0  44095-4 0  9996
2 54793  53.2101  31.7076 0001319  68.9400 291.1733 15.08841032191950
STARLINK-5436           
1 54795U 22175AP  26145.93678699 -.00000171  00000+0  73656-5 0  9993
2 54795  53.2117  42.1696 0001588 107.2396 252.8770 15.08836519191793
STARLINK-5415           
1 54796U 22175AQ  26145.99566014  .00000007  00000+0  18534-4 0  9997
2 54796  53.2100  41.8283 0001630  76.4339 283.6835 15.08835060191802
STARLINK-5435           
1 54797U 22175AR  26146.07436970  .00000596  00000+0  55571-4 0  9990
2 54797  53.2120  56.5690 0001637  65.8442 294.2721 15.08840542191605
STARLINK-5420           
1 54798U 22175AS  26146.05914390  .00000215  00000+0  31596-4 0  9995
2 54798  53.2112  31.5552 0001660  81.9814 278.1366 15.08836154191953
STARLINK-5421           
1 54799U 22175AT  26145.94508463  .00000398  00000+0  43105-4 0  9994
2 54799  53.2125  32.2710 0001273  87.2785 272.8352 15.08839459191933
STARLINK-5428           
1 54800U 22175AU  26146.13320197  .00000375  00000+0  41670-4 0  9995
2 54800  53.2097  46.2307 0001664  96.9311 263.1871 15.08835526191757
STARLINK-5429           
1 54801U 22175AV  26145.98139094  .00001373  00000+0  10437-3 0  9997
2 54801  53.2119  56.7028 0001405  86.7176 273.3977 15.08828307191599
STARLINK-5426           
1 54802U 22175AW  26145.97222653  .00003278  00000+0  22885-3 0  9997
2 54802  53.2189   1.6670 0001470  63.9903 296.1240 15.08027726192364
STARLINK-5430           
1 54803U 22175AX  26146.12491171  .00000471  00000+0  47699-4 0  9992
2 54803  53.2104  56.1622 0001382  78.2977 281.8170 15.08835419191612
STARLINK-5422           
1 54804U 22175AY  26145.97354873 -.00000298  00000+0 -62488-6 0  9996
2 54804  53.2111  41.6976 0001632  85.7651 274.3527 15.08844229191805
STARLINK-5417           
1 54805U 22175AZ  26145.92804568 -.00024176  00000+0 -15358-2 0  9994
2 54805  53.2193  42.1172 0001900  72.8995 287.2204 15.08125156191790
STARLINK-5412           
1 54806U 22175BA  26146.04715980 -.00000372  00000+0 -53060-5 0  9995
2 54806  53.2093  41.4411 0001541  77.1962 282.9202 15.08837864191810
STARLINK-5410           
1 54807U 22175BB  26146.11708320 -.00000245  00000+0  27141-5 0  9993
2 54807  53.2118  41.1648 0001520  78.3542 281.7621 15.08838388191827
STARLINK-5413           
1 54808U 22175BC  26145.95845139 -.00002275  00000+0 -12485-3 0  9994
2 54808  53.2084  27.4166 0002147  87.4668 272.6570 15.08844838192008
STARLINK-5414           
1 54809U 22175BD  26146.10971205 -.00000149  00000+0  87151-5 0  9998
2 54809  53.2102  41.1234 0001292  77.9681 282.1456 15.08843197191823
STARLINK-5408           
1 54810U 22175BE  26146.13044645  .00000224  00000+0  32187-4 0  9993
2 54810  53.2117  36.2420 0001816  76.7526 283.3669 15.08836805191894
