OBJECT_NAME,OBJECT_ID,EPOCH,MEAN_MOTION,ECCENTRICITY,INCLINATION,RA_OF_ASC_NODE,ARG_OF_PERICENTER,MEAN_ANOMALY,EPHEMERIS_TYPE,CLASSIFICATION_TYPE,NORAD_CAT_ID,ELEMENT_SET_NO,REV_AT_EPOCH,BSTAR,MEAN_MOTION_DOT,MEAN_MOTION_DDOT
STARLINK-5450,2022-175W,2026-05-26T00:36:12.060576,15.08845801,.00013493,53.2098,42.0113,79.6250,280.4894,0,U,54778,999,19180,-.7819408E-5,-.412E-5,0
STARLINK-5447,2022-175X,2026-05-26T02:16:53.328288,15.08825687,.00015282,53.2118,41.7369,93.1247,266.9920,0,U,54779,999,19181,.2701153E-3,.4012E-4,0
STARLINK-5449,2022-175Y,2026-05-26T01:50:21.917184,15.08833238,.00016914,53.2112,41.6156,71.3343,288.7833,0,U,54780,999,19181,.12217131E-4,-.94E-6,0
STARLINK-5443,2022-175Z,2026-05-26T02:06:17.198784,15.08831505,.00015464,53.2116,41.6827,89.4053,270.7117,0,U,54781,999,19181,-.43072057E-4,-.973E-5,0
STARLINK-5439,2022-175AB,2026-05-26T03:36:21.729600,15.08841014,.00018851,53.2108,41.3688,77.7068,282.4135,0,U,54783,999,19182,-.65756007E-4,-.1335E-4,0
STARLINK-5442,2022-175AC,2026-05-26T03:10:29.225280,15.08837661,.00013851,53.2103,56.2239,99.8886,260.2262,0,U,54784,999,19161,.3551254E-5,-.231E-5,0
STARLINK-5440,2022-175AD,2026-05-25T20:48:17.994816,15.08829834,.00013209,53.2126,2.5271,95.5326,264.5817,0,U,54785,999,19234,.15149707E-3,.2123E-4,0
STARLINK-5441,2022-175AF,2026-05-26T03:05:10.767840,15.08836936,.00013643,53.2096,56.2012,75.0032,285.1111,0,U,54787,999,19161,.41685984E-4,.376E-5,0
STARLINK-5399,2022-175AG,2026-05-25T22:34:16.885344,15.08838654,.00017695,53.2119,42.1935,85.3575,274.7619,0,U,54788,999,19179,.35701986E-4,.28E-5,0
STARLINK-5446,2022-175AH,2026-05-26T01:44:21.935040,15.08837914,.00016438,53.2138,26.5011,94.7816,265.3364,0,U,54789,999,19202,.63099406E-4,.716E-5,0
STARLINK-5445,2022-175AJ,2026-05-26T03:09:50.236416,15.08829117,.00015885,53.2114,41.2542,76.6100,283.5069,0,U,54790,999,19182,-.19063529E-4,-.591E-5,0
STARLINK-5425,2022-175AK,2026-05-26T01:55:40.193184,15.08835072,.00014589,53.2107,41.6392,94.4912,265.6247,0,U,54791,999,19181,-.3071944E-5,-.337E-5,0
STARLINK-5431,2022-175AL,2026-05-26T01:19:10.827552,15.08842435,.00015971,53.2101,56.4523,91.0251,269.0924,0,U,54792,999,19160,-.27399463E-4,-.724E-5,0
STARLINK-5433,2022-175AM,2026-05-26T01:56:59.894592,15.08841032,.00013193,53.2101,31.7076,68.9400,291.1733,0,U,54793,999,19195,.44094955E-4,.414E-5,0
STARLINK-5436,2022-175AP,2026-05-25T22:28:58.395936,15.08836519,.00015889,53.2117,42.1696,107.2396,252.8770,0,U,54795,999,19179,.7365635E-5,-.171E-5,0
STARLINK-5415,2022-175AQ,2026-05-25T23:53:45.036096,15.08835060,.000163,53.2100,41.8283,76.4339,283.6835,0,U,54796,999,19180,.18534229E-4,.7E-7,0
STARLINK-5435,2022-175AR,2026-05-26T01:47:05.542080,15.08840542,.00016371,53.2120,56.5690,65.8442,294.2721,0,U,54797,999,19160,.55571061E-4,.596E-5,0
STARLINK-5420,2022-175AS,2026-05-26T01:25:10.032960,15.08836154,.00016607,53.2112,31.5552,81.9814,278.1366,0,U,54798,999,19195,.31595626E-4,.215E-5,0
STARLINK-5421,2022-175AT,2026-05-25T22:40:55.312032,15.08839459,.00012732,53.2125,32.2710,87.2785,272.8352,0,U,54799,999,19193,.43105326E-4,.398E-5,0
STARLINK-5428,2022-175AU,2026-05-26T03:11:48.650208,15.08835526,.00016641,53.2097,46.2307,96.9311,263.1871,0,U,54800,999,19175,.4167024E-4,.375E-5,0
STARLINK-5429,2022-175AV,2026-05-25T23:33:12.177216,15.08828307,.00014055,53.2119,56.7028,86.7176,273.3977,0,U,54801,999,19159,.10437314E-3,.1373E-4,0
STARLINK-5426,2022-175AW,2026-05-25T23:20:00.372192,15.08027726,.00014705,53.2189,1.6670,63.9903,296.1240,0,U,54802,999,19236,.22884895E-3,.3278E-4,0
STARLINK-5430,2022-175AX,2026-05-26T02:59:52.371744,15.08835419,.00013821,53.2104,56.1622,78.2977,281.8170,0,U,54803,999,19161,.47699078E-4,.471E-5,0
STARLINK-5422,2022-175AY,2026-05-25T23:21:54.610272,15.08844229,.00016328,53.2111,41.6976,85.7651,274.3527,0,U,54804,999,19180,-.624884E-6,-.298E-5,0
STARLINK-5417,2022-175AZ,2026-05-25T22:16:23.146752,15.08125156,.00019001,53.2193,42.1172,72.8995,287.2204,0,U,54805,999,19179,-.15357695E-2,-.24176E-3,0
STARLINK-5412,2022-175BA,2026-05-26T01:07:54.606720,15.08837864,.00015418,53.2093,41.4411,77.1962,282.9202,0,U,54806,999,19181,-.5305974E-5,-.372E-5,0
STARLINK-5410,2022-175BB,2026-05-26T02:48:35.988480,15.08838388,.00015203,53.2118,41.1648,78.3542,281.7621,0,U,54807,999,19182,.2714141E-5,-.245E-5,0
STARLINK-5413,2022-175BC,2026-05-25T23:00:10.200096,15.08844838,.00021471,53.2084,27.4166,87.4668,272.6570,0,U,54808,999,19200,-.1248531E-3,-.2275E-4,0
STARLINK-5414,2022-175BD,2026-05-26T02:37:59.121120,15.08843197,.00012928,53.2102,41.1234,77.9681,282.1456,0,U,54809,999,19182,.871513E-5,-.149E-5,0
STARLINK-5408,2022-175BE,2026-05-26T03:07:50.573280,15.08836805,.00018162,53.2117,36.2420,76.7526,283.3669,0,U,54810,999,19189,.32186653E-4,.224E-5,0
